[{"OBJECT_NAME":"COSMOS 2497 (RODNIK-S 11)","OBJECT_ID":"2014-028B","EPOCH":"2026-03-09T23:41:24.231264","MEAN_MOTION":12.42874686,"ECCENTRICITY":0.00192237,"INCLINATION":82.4547,"RA_OF_ASC_NODE":172.5052,"ARG_OF_PERICENTER":290.3082,"MEAN_ANOMALY":69.5932,"EPHEMERIS_TYPE":0,"CLASSIFICATION_TYPE":"U","NORAD_CAT_ID":39762,"ELEMENT_SET_NO":999,"REV_AT_EPOCH":53519,"BSTAR":0.00013771145,"MEAN_MOTION_DOT":2.9e-7,"MEAN_MOTION_DDOT":0},{"OBJECT_NAME":"DELTA 1 DEB","OBJECT_ID":"1973-086CM","EPOCH":"2026-03-09T23:46:43.410144","MEAN_MOTION":12.27059645,"ECCENTRICITY":0.00708892,"INCLINATION":102.5747,"RA_OF_ASC_NODE":95.3274,"ARG_OF_PERICENTER":74.3386,"MEAN_ANOMALY":358.0222,"EPHEMERIS_TYPE":0,"CLASSIFICATION_TYPE":"U","NORAD_CAT_ID":7093,"ELEMENT_SET_NO":999,"REV_AT_EPOCH":33320,"BSTAR":0.00022124313,"MEAN_MOTION_DOT":-2.1e-7,"MEAN_MOTION_DDOT":0}]
